PANDORA
1 67395U 80229J   26111.70194444  .00000000  00000-0  37770-3 0    05
2 67395  97.8064 111.2420 0003993 332.7945 119.4646 14.87971799    07
